KUIPER-00383            
1 69268U 26118B   26203.25002315 -.01104292  00000+0 -61574-1 0  9994
2 69268  51.8778 245.4724 0010040 318.0343 335.0836 15.15822384  3071
KUIPER-00527            
1 69269U 26118C   26203.25002315 -.00179043  00000+0 -10453-1 0  9990
2 69269  51.8840 245.4673 0007991 327.2048 283.8294 15.12269678  3021
KUIPER-00562            
1 69270U 26118D   26202.42148327  .00014700  00000+0  39441-3 0  9990
2 69270  51.8715 247.3746 0000766  33.2564 326.8471 15.38180764  9258
KUIPER-00570            
1 69271U 26118E   26203.25002315 -.00048437  00000+0 -50928-2 0  9997
2 69271  51.8958 248.4727 0006969 328.1030 176.8171 14.89101009  4709
KUIPER-00572            
1 69272U 26118F   26203.25002315 -.01103219  00000+0 -70584-1 0  9998
2 69272  51.8826 245.1348 0004497 321.3051 112.7180 15.11012824  3732
KUIPER-00581            
1 69273U 26118G   26203.25002315 -.00045457  00000+0 -50999-2 0  9996
2 69273  51.8991 248.2514 0005929 315.1268 331.4652 14.86452146  3692
KUIPER-00584            
1 69274U 26118H   26203.25002315 -.00060971  00000+0 -78084-2 0  9990
2 69274  51.8993 250.7356 0003195   5.1448  87.3412 14.81157364  5890
KUIPER-00587            
1 69275U 26118J   26203.25002315 -.00083410  00000+0 -28365-2 0  9991
2 69275  51.8664 244.1456 0007731 325.6090 278.1113 15.30124179  5876
KUIPER-00590            
1 69276U 26118K   26203.25002315 -.00183766  00000+0 -15100-1 0  9999
2 69276  51.9056 246.3455 0002292  26.0857 272.3149 14.99696620  3935
KUIPER-00592            
1 69277U 26118L   26203.25002315 -.00177597  00000+0 -13371-1 0  9993
2 69277  51.9029 245.8880 0001187 191.0940 353.0413 15.02977907  5578
KUIPER-00593            
1 69278U 26118M   26202.35576079  .00018614  00000+0  48622-3 0  9998
2 69278  51.8693 247.6856 0003125 305.4317  54.6378 15.38820570  9302
KUIPER-00594            
1 69279U 26118N   26202.55608618  .00021710  00000+0  58933-3 0  9993
2 69279  51.8700 246.7782 0002024  73.1256 286.9952 15.37529342  9274
KUIPER-00595            
1 69280U 26118P   26202.55864091  .00019811  00000+0  53833-3 0  9997
2 69280  51.8699 246.7939 0001435  19.2045 340.8996 15.37558262  9304
KUIPER-00596            
1 69281U 26118Q   26203.25002315 -.00058329  00000+0 -75400-2 0  9991
2 69281  51.9005 250.6208 0000980  13.8493 170.4189 14.80750511  5621
KUIPER-00597            
1 69282U 26118R   26202.51902361  .00018995  00000+0  51085-3 0  9997
2 69282  51.8628 247.2478 0006517 311.7787  48.2643 15.37892162  9264
KUIPER-00599            
1 69283U 26118S   26203.25002315 -.02267920  00000+0 -10296+0 0  9993
2 69283  51.8768 244.1117 0005191 307.2381 345.2196 15.24201393  4515
KUIPER-00600            
1 69284U 26118T   26202.53070949  .00022431  00000+0  60733-3 0  9999
2 69284  51.8630 247.3199 0008437 312.2212  47.8059 15.37561037  9262
KUIPER-00601            
1 69285U 26118U   26203.25002315 -.00210508  00000+0 -16628-1 0  9990
2 69285  51.9088 246.0524 0002577 313.3403  70.7617 15.01345366  5124
KUIPER-00602            
1 69286U 26118V   26203.25002315 -.01131886  00000+0 -36363-1 0  9991
2 69286  51.8704 243.4527 0002644 310.9011 282.2969 15.34644370  5758
KUIPER-00603            
1 69287U 26118W   26203.25002315 -.00179502  00000+0 -74402-2 0  9995
2 69287  51.8756 243.9510 0003038 308.4115   5.3029 15.24152968  5306
KUIPER-00605            
1 69288U 26118X   26203.25002315 -.00177298  00000+0 -18609-1 0  9992
2 69288  51.9276 248.3128 0004387  11.9950  46.2965 14.90077817  4651
KUIPER-00606            
1 69289U 26118Y   26203.25002315 -.02054605  00000+0 -94550-1 0  9990
2 69289  51.8803 243.9493 0001793 288.5903  50.8845 15.23406511  5632
KUIPER-00607            
1 69290U 26118Z   26203.22296905  .00030322  00000+0  80282-3 0  9994
2 69290  51.8667 243.7287 0005106 313.5659  46.4904 15.38101496  9372
KUIPER-00608            
1 69291U 26118AA  26202.53602851  .00055793  00000+0  17079-2 0  9991
2 69291  51.8607 248.0687 0009691 323.0031  37.0284 15.33241999  9254
KUIPER-00610            
1 69292U 26118AB  26203.25002315 -.00010473  00000+0 -29210-3 0  9990
2 69292  51.8723 243.3566 0001252  32.6107 242.6004 15.35116892  4861
KUIPER-00613            
1 69293U 26118AC  26203.25002315 -.00040813  00000+0 -44037-2 0  9995
2 69293  51.8988 248.2859 0010624 320.3201  31.9011 14.87949255  5321
KUIPER-00618            
1 69294U 26118AD  26202.55989504  .00026610  00000+0  71636-3 0  9995
2 69294  51.8709 246.8029 0000955 350.8555   9.2415 15.37666289  9275
KUIPER-00620            
1 69295U 26118AE  26203.25002315 -.02224666  00000+0 -74014-1 0  9996
2 69295  51.8727 243.3613 0001172 311.1113 328.5049 15.34177401  2520
STARLINK-37501          
1 69296U 26119A   26203.03611611  .00018413  00000+0  57092-3 0  9995
2 69296  97.2858 228.5800 0001390 102.9212 257.2186 15.33465026  9395
STARLINK-37496          
1 69297U 26119B   26203.03883800  .00018144  00000+0  56272-3 0  9997
2 69297  97.2870 228.7307 0001754 108.1464 251.9970 15.33459995  9407
