OBJECT_NAME,OBJECT_ID,EPOCH,MEAN_MOTION,ECCENTRICITY,INCLINATION,RA_OF_ASC_NODE,ARG_OF_PERICENTER,MEAN_ANOMALY,EPHEMERIS_TYPE,CLASSIFICATION_TYPE,NORAD_CAT_ID,ELEMENT_SET_NO,REV_AT_EPOCH,BSTAR,MEAN_MOTION_DOT,MEAN_MOTION_DDOT
KUIPER-00383,2026-118B,2026-07-22T06:00:02.000160,15.15822384,.00100403,51.8778,245.4724,318.0343,335.0836,0,U,69268,999,307,-.61573932E-1,-.1104292E-1,0
KUIPER-00527,2026-118C,2026-07-22T06:00:02.000160,15.12269678,.00079911,51.8840,245.4673,327.2048,283.8294,0,U,69269,999,302,-.10453232E-1,-.179043E-2,0
KUIPER-00562,2026-118D,2026-07-21T10:06:56.154528,15.38180764,.0000766,51.8715,247.3746,33.2564,326.8471,0,U,69270,999,925,.39441416E-3,.147E-3,0
KUIPER-00570,2026-118E,2026-07-22T06:00:02.000160,14.89101009,.00069699,51.8958,248.4727,328.1030,176.8171,0,U,69271,999,470,-.50927984E-2,-.48437E-3,0
KUIPER-00572,2026-118F,2026-07-22T06:00:02.000160,15.11012824,.00044978,51.8826,245.1348,321.3051,112.7180,0,U,69272,999,373,-.7058378E-1,-.1103219E-1,0
KUIPER-00581,2026-118G,2026-07-22T06:00:02.000160,14.86452146,.00059292,51.8991,248.2514,315.1268,331.4652,0,U,69273,999,369,-.50998751E-2,-.45457E-3,0
KUIPER-00584,2026-118H,2026-07-22T06:00:02.000160,14.81157364,.00031952,51.8993,250.7356,5.1448,87.3412,0,U,69274,999,589,-.78084177E-2,-.60971E-3,0
KUIPER-00587,2026-118J,2026-07-22T06:00:02.000160,15.30124179,.00077312,51.8664,244.1456,325.6090,278.1113,0,U,69275,999,587,-.28365443E-2,-.8341E-3,0
KUIPER-00590,2026-118K,2026-07-22T06:00:02.000160,14.99696620,.00022921,51.9056,246.3455,26.0857,272.3149,0,U,69276,999,393,-.15099568E-1,-.183766E-2,0
KUIPER-00592,2026-118L,2026-07-22T06:00:02.000160,15.02977907,.00011872,51.9029,245.8880,191.0940,353.0413,0,U,69277,999,557,-.1337072E-1,-.177597E-2,0
KUIPER-00593,2026-118M,2026-07-21T08:32:17.732256,15.38820570,.00031257,51.8693,247.6856,305.4317,54.6378,0,U,69278,999,930,.48621784E-3,.18614E-3,0
KUIPER-00594,2026-118N,2026-07-21T13:20:45.845952,15.37529342,.00020248,51.8700,246.7782,73.1256,286.9952,0,U,69279,999,927,.58933083E-3,.2171E-3,0
KUIPER-00595,2026-118P,2026-07-21T13:24:26.574624,15.37558262,.00014353,51.8699,246.7939,19.2045,340.8996,0,U,69280,999,930,.5383286E-3,.19811E-3,0
KUIPER-00596,2026-118Q,2026-07-22T06:00:02.000160,14.80750511,.00009808,51.9005,250.6208,13.8493,170.4189,0,U,69281,999,562,-.75399896E-2,-.58329E-3,0
KUIPER-00597,2026-118R,2026-07-21T12:27:23.639904,15.37892162,.00065178,51.8628,247.2478,311.7787,48.2643,0,U,69282,999,926,.51085483E-3,.18995E-3,0
KUIPER-00599,2026-118S,2026-07-22T06:00:02.000160,15.24201393,.0005191,51.8768,244.1117,307.2381,345.2196,0,U,69283,999,451,-.10296192E+0,-.226792E-1,0
KUIPER-00600,2026-118T,2026-07-21T12:44:13.299936,15.37561037,.0008437,51.8630,247.3199,312.2212,47.8059,0,U,69284,999,926,.60733253E-3,.22431E-3,0
KUIPER-00601,2026-118U,2026-07-22T06:00:02.000160,15.01345366,.00025775,51.9088,246.0524,313.3403,70.7617,0,U,69285,999,512,-.16628456E-1,-.210508E-2,0
KUIPER-00602,2026-118V,2026-07-22T06:00:02.000160,15.34644370,.00026444,51.8704,243.4527,310.9011,282.2969,0,U,69286,999,575,-.36363365E-1,-.1131886E-1,0
KUIPER-00603,2026-118W,2026-07-22T06:00:02.000160,15.24152968,.00030385,51.8756,243.9510,308.4115,5.3029,0,U,69287,999,530,-.74401609E-2,-.179502E-2,0
KUIPER-00605,2026-118X,2026-07-22T06:00:02.000160,14.90077817,.0004387,51.9276,248.3128,11.9950,46.2965,0,U,69288,999,465,-.18608969E-1,-.177298E-2,0
KUIPER-00606,2026-118Y,2026-07-22T06:00:02.000160,15.23406511,.00017933,51.8803,243.9493,288.5903,50.8845,0,U,69289,999,563,-.9455023E-1,-.2054605E-1,0
KUIPER-00607,2026-118Z,2026-07-22T05:21:04.525920,15.38101496,.0005106,51.8667,243.7287,313.5659,46.4904,0,U,69290,999,937,.80281579E-3,.30322E-3,0
KUIPER-00608,2026-118AA,2026-07-21T12:51:52.863264,15.33241999,.00096911,51.8607,248.0687,323.0031,37.0284,0,U,69291,999,925,.17078649E-2,.55793E-3,0
KUIPER-00610,2026-118AB,2026-07-22T06:00:02.000160,15.35116892,.00012522,51.8723,243.3566,32.6107,242.6004,0,U,69292,999,486,-.29209788E-3,-.10473E-3,0
KUIPER-00613,2026-118AC,2026-07-22T06:00:02.000160,14.87949255,.00106247,51.8988,248.2859,320.3201,31.9011,0,U,69293,999,532,-.44036954E-2,-.40813E-3,0
KUIPER-00618,2026-118AD,2026-07-21T13:26:14.931456,15.37666289,.00009558,51.8709,246.8029,350.8555,9.2415,0,U,69294,999,927,.71635767E-3,.2661E-3,0
KUIPER-00620,2026-118AE,2026-07-22T06:00:02.000160,15.34177401,.00011724,51.8727,243.3613,311.1113,328.5049,0,U,69295,999,252,-.74013959E-1,-.2224666E-1,0
STARLINK-37501,2026-119A,2026-07-22T00:52:00.431904,15.33465026,.000139,97.2858,228.5800,102.9212,257.2186,0,U,69296,999,939,.57091966E-3,.18413E-3,0
STARLINK-37496,2026-119B,2026-07-22T00:55:55.603200,15.33459995,.00017545,97.2870,228.7307,108.1464,251.9970,0,U,69297,999,940,.56271807E-3,.18144E-3,0
